[
  "TORO                    \r\n1 60530U 24149BQ  26195.72143070  .00000438  00000+0  43567-4 0  9994\r\n2 60530  97.6778 269.8754 0001152  98.4022 261.7330 14.96515969104074\r\n",
  "TORO3                   \r\n1 68481U 26067BT  26195.86172191  .00000132  00000+0  18458-4 0  9991\r\n2 68481  97.7687 153.8329 0002025 190.4321 169.6856 14.92166596 15852\r\n",
  "SATORO-T3               \r\n1 64589U 25135BP  26195.81649175  .00000918  00000+0  90518-4 0  9996\r\n2 64589  97.7738 310.0658 0003742 227.6252 132.4652 14.94436072 58039\r\n",
  "GEMINI-POLLUX           \r\n1 69000U 26100W   26195.95508053  .00000826  00000+0  86307-4 0  9995\r\n2 69000  97.7289  92.9127 0002138 109.5548 250.5902 14.92323208 10845\r\n",
  "FORMOSAT-2 (ROCSAT 2)   \r\n1 28254U 04018A   26195.88232007 -.00000268  00000+0 -14956-3 0  9992\r\n2 28254  98.8458 162.5145 0000853 205.4467 209.0137 14.01252116132633\r\n",
  "FORMOSAT-3 FM6          \r\n1 29047U 06011A   26195.56716860  .00000189  00000+0  86043-4 0  9994\r\n2 29047  71.9763 255.2219 0048706 192.5854 167.4072 14.31418441 58328\r\n",
  "FORMOSAT-3 FM1          \r\n1 29048U 06011B   26195.91058949  .00000168  00000+0  78184-4 0  9995\r\n2 29048  71.9650 162.9041 0041325 154.8092 205.5074 14.31407627 60745\r\n",
  "FORMOSAT-3 FM5          \r\n1 29049U 06011C   26195.82076655  .00000180  00000+0  82881-4 0  9993\r\n2 29049  72.0195 347.3738 0033336 161.5216 198.7142 14.31424269 56622\r\n",
  "FORMOSAT-3 FM3          \r\n1 29050U 06011D   26195.59754740  .00000518  00000+0  10030-3 0  9998\r\n2 29050  72.0122 252.9204 0044811 236.4904 123.1968 14.67014693 80393\r\n",
  "FORMOSAT-3 FM4          \r\n1 29051U 06011E   26195.56873463  .00000152  00000+0  71166-4 0  9992\r\n2 29051  72.0024 245.3813 0064730  41.7341 318.8708 14.31557320 59189\r\n",
  "FORMOSAT-3 FM2          \r\n1 29052U 06011F   26195.77580485  .00000190  00000+0  86092-4 0  9991\r\n2 29052  72.0338 325.8582 0037359 113.3389 247.1687 14.31638578 56733\r\n",
  "PACE                    \r\n1 40022U 14033N   26195.81144088  .00002584  00000+0  15873-3 0  9991\r\n2 40022  98.1245 202.3845 0007838 118.8757 241.3258 15.11069978657208\r\n",
  "FORMOSAT-5              \r\n1 42920U 17049A   26195.91397308  .00000037  00000+0  20533-4 0  9997\r\n2 42920  98.2246 270.6067 0011363   4.7028 355.4272 14.50907751470696\r\n",
  "FORMOSAT 7-3            \r\n1 44343U 19036E   26195.80707908  .00002587  00000+0  13444-3 0  9999\r\n2 44343  24.0000 348.4178 0000144 225.7106 134.3386 15.09992955387429\r\n",
  "FORMOSAT 7-1            \r\n1 44349U 19036L   26195.11697589  .00001323  00000+0  87353-4 0  9990\r\n2 44349  23.9965 210.8268 0000992 119.0501 241.0100 14.96609694388690\r\n",
  "FORMOSAT 7-4            \r\n1 44350U 19036M   26195.53960159  .00001372  00000+0  91577-4 0  9991\r\n2 44350  23.9978 270.0878 0001207 134.1754 225.8846 14.96608631388179\r\n",
  "FORMOSAT 7-2            \r\n1 44351U 19036N   26195.56196773  .00001502  00000+0  10275-3 0  9998\r\n2 44351  23.9992 324.2509 0000725 126.1449 233.9119 14.96607917387690\r\n",
  "FORMOSAT 7-6            \r\n1 44353U 19036Q   26195.56155075  .00001427  00000+0  96307-4 0  9997\r\n2 44353  23.9966 145.0607 0001306  68.3395 291.7245 14.96611257385922\r\n",
  "FORMOSAT 7-5            \r\n1 44358U 19036V   26195.00559900  .00001521  00000+0  10448-3 0  9992\r\n2 44358  23.9985  87.5620 0000433 125.4285 234.6256 14.96589152386372\r\n",
  "FORMOSAT-7R (TRITON)    \r\n1 58017U 23155B   26195.81878543  .00000677  00000+0  73785-4 0  9997\r\n2 58017  97.8353 277.0192 0001620  53.9062 306.2306 14.91193680150345\r\n",
  "NIGHTJAR                \r\n1 60535U 24149BV  26195.89287416  .00002234  00000+0  18838-3 0  9998\r\n2 60535  97.6839 272.2110 0002615  96.7974 263.3547 14.99168053147024\r\n",
  "IRIS-F3                 \r\n1 62619U 25009L   26195.70529269  .00004926  00000+0  18657-3 0  9993\r\n2 62619  97.4047 276.3362 0005542 210.4512 149.6406 15.27367658 83020\r\n",
  "IRIS-F2                 \r\n1 62684U 25009CD  26195.91912761  .00007914  00000+0  29788-3 0  9998\r\n2 62684  97.3892 275.4225 0004370 237.7154 122.3662 15.27377465140695\r\n",
  "FORMOSAT-8A             \r\n1 66666U 25276A   26195.74282122  .00000913  00000+0  76642-4 0  9994\r\n2 66666  97.6548 269.5709 0005546 131.1907 228.9796 15.00751495 34198\r\n",
  "LILIUM-2                \r\n1 66679U 25276P   26195.72676902  .00001500  00000+0  76864-4 0  9998\r\n2 66679  97.4144 268.2190 0004369 269.9197  90.1536 15.18097363 34574\r\n",
  "BLACK KITE-1            \r\n1 66741U 25276CD  26195.74722870  .00004598  00000+0  21062-3 0  9995\r\n2 66741  97.4237 269.0667 0004248 242.0202 118.0604 15.20973555 31910\r\n",
  "T.MICROSAT-1            \r\n1 66766U 25276DE  26195.90532950  .00003078  00000+0  14153-3 0  9993\r\n2 66766  97.4157 269.2027 0002268 100.1899 259.9593 15.21095733 34656\r\n",
  "LILIUM-3                \r\n1 66770U 25276DJ  26195.74984984  .00001339  00000+0  66005-4 0  9990\r\n2 66770  97.4237 269.0532 0003011 129.5159 230.6342 15.19639590 34616\r\n",
  "T.MICROSAT-2            \r\n1 68433U 26067T   26195.82084966  .00002881  00000+0  14645-3 0  9992\r\n2 68433  97.4582 153.7773 0004850 346.8449  13.2657 15.17647356 16128\r\n",
  "PARUS-6U1               \r\n1 68456U 26067AS  26195.88022860  .00002977  00000+0  15062-3 0  9998\r\n2 68456  97.4567 153.8255 0004760 349.6604  10.4531 15.17792429 16139\r\n",
  "BLACK KITE-2            \r\n1 68474U 26067BL  26195.83368374  .00001456  00000+0  14660-3 0  9990\r\n2 68474  97.7562 153.7168 0003261 123.2783 236.8750 14.92698794 15855\r\n",
  "PEARL-1B                \r\n1 68980U 26100A   26195.70043267  .00000874  00000+0  94718-4 0  9993\r\n2 68980  97.7333  92.5088 0008750  62.0753 298.1350 14.90664604 10784\r\n",
  "PEARL-1A                \r\n1 68990U 26100L   26195.68026724  .00000725  00000+0  78810-4 0  9990\r\n2 68990  97.7278  92.4938 0006903  76.4167 283.7820 14.91056936 10799\r\n"
]